<?xml version="1.0" encoding="UTF-8"?>
<osm version="0.5" generator="OpenStreetMap server">
  <node id="21301551" lat="52.2727414" lon="8.06134" user="KK-O" visible="true" timestamp="2008-02-20T16:21:25+00:00">
    <tag k="name" v="OsnabrÃ¼ck"/>
    <tag k="uic_ref" v="8000294"/>
    <tag k="railway" v="station"/>
  </node>
  <node id="25975484" lat="52.3772311" lon="9.7418923" user="der_paddler" visible="true" timestamp="2007-12-04T07:04:57+00:00">
    <tag k="uic_ref" v="8000152"/>
    <tag k="railway" v="station"/>
    <tag k="name" v="Hannover Hauptbahnhof"/>
  </node>
  <node id="29805011" lat="52.5250723" lon="13.3700936" user="belasco" visible="true" timestamp="2008-01-15T19:59:20+00:00">
    <tag k="name" v="Berlin Hauptbahnhof"/>
    <tag k="created_by" v="JOSM"/>
    <tag k="railway" v="station"/>
  </node>
  <node id="45487321" lat="52.15354" lon="5.37415" user="GercoKees" visible="true" timestamp="2008-02-13T09:16:53+00:00">
    <tag k="source" v="AND"/>
  </node>
  <node id="45712379" lat="52.20938" lon="5.96858" user="AND" visible="true" timestamp="2007-09-08T02:23:30+01:00">
    <tag k="AND_nodes" v="4361"/>
    <tag k="AND_nosr_p" v="10018553"/>
    <tag k="railway" v="station"/>
    <tag k="name" v="Apeldoorn"/>
    <tag k="AND_r_p" v="10000238"/>
    <tag k="railway" v="station"/>
    <tag k="name" v="Apeldoorn"/>
    <tag k="source" v="AND"/>
  </node>
  <node id="45791851" lat="52.22655" lon="5.18145" user="AND" visible="true" timestamp="2007-09-08T03:05:38+01:00">
    <tag k="AND_nodes" v="4263"/>
    <tag k="AND_nosr_p" v="10013108"/>
    <tag k="railway" v="station"/>
    <tag k="name" v="Hilversum"/>
    <tag k="AND_r_p" v="10000245"/>
    <tag k="railway" v="station"/>
    <tag k="name" v="Hilversum"/>
    <tag k="source" v="AND"/>
  </node>
  <node id="45911933" lat="52.25706" lon="6.16127" user="AND" visible="true" timestamp="2007-09-08T04:12:07+01:00">
    <tag k="AND_nodes" v="4102"/>
    <tag k="AND_nosr_p" v="10018970"/>
    <tag k="railway" v="station"/>
    <tag k="name" v="Deventer"/>
    <tag k="AND_r_p" v="10000250"/>
    <tag k="railway" v="station"/>
    <tag k="name" v="Deventer"/>
    <tag k="source" v="AND"/>
  </node>
  <node id="45931397" lat="52.26194" lon="6.79255" user="benbono" visible="true" timestamp="2008-01-31T22:51:16+00:00">
    <tag k="railway" v="station"/>
    <tag k="source" v="AND"/>
    <tag k="name" v="Hengelo"/>
    <tag k="AND_nodes" v="4030"/>
  </node>
  <node id="46321985" lat="52.35694" lon="6.65571" user="AND" visible="true" timestamp="2007-09-08T08:31:09+01:00">
    <tag k="AND_nodes" v="3335"/>
    <tag k="AND_nosr_p" v="10022929"/>
    <tag k="railway" v="station"/>
    <tag k="name" v="Almelo"/>
    <tag k="AND_r_p" v="10000282"/>
    <tag k="railway" v="station"/>
    <tag k="name" v="Almelo"/>
    <tag k="source" v="AND"/>
  </node>
  <node id="46419880" lat="52.37864" lon="4.90028" user="AND" visible="true" timestamp="2007-09-08T09:33:00+01:00">
    <tag k="AND_nodes" v="3057"/>
    <tag k="AND_nosr_p" v="10004755"/>
    <tag k="railway" v="station"/>
    <tag k="name" v="Amsterdam CS"/>
    <tag k="AND_r_p" v="10000294"/>
    <tag k="railway" v="station"/>
    <tag k="name" v="Amsterdam CS"/>
    <tag k="source" v="AND"/>
  </node>
  <relation id="4904" visible="true" timestamp="2008-02-24T21:27:10+00:00">
    <member type="node" ref="21301551" role="stop"/>
    <member type="node" ref="25975484" role="stop"/>
    <member type="node" ref="29805011" role="stop"/>
    <member type="node" ref="45487321" role="stop"/>
    <member type="node" ref="45712379" role="stop"/>
    <member type="node" ref="45791851" role="stop"/>
    <member type="node" ref="45911933" role="stop"/>
    <member type="node" ref="45931397" role="stop"/>
    <member type="node" ref="46321985" role="stop"/>
    <member type="node" ref="46419880" role="stop"/>
    <tag k="operator" v="NS Internationaal"/>
    <tag k="created_by" v="JOSM"/>
    <tag k="route" v="train"/>
    <tag k="name" v="Amsterdam CS-Berlin Hbf"/>
    <tag k="type" v="route"/>
  </relation>
</osm>
